[{"OBJECT_NAME":"ONEWEB-0094","OBJECT_ID":"2020-020AC","EPOCH":"2026-05-17T03:28:51.489696","MEAN_MOTION":13.17649224,"ECCENTRICITY":0.0001879,"INCLINATION":87.9169,"RA_OF_ASC_NODE":12.0186,"ARG_OF_PERICENTER":75.9423,"MEAN_ANOMALY":284.1918,"EPHEMERIS_TYPE":0,"CLASSIFICATION_TYPE":"U","NORAD_CAT_ID":45450,"ELEMENT_SET_NO":999,"REV_AT_EPOCH":30222,"BSTAR":0.00022227,"MEAN_MOTION_DOT":9.9e-07,"MEAN_MOTION_DDOT":0.0},{"OBJECT_NAME":"ONEWEB-0087","OBJECT_ID":"2020-020AD","EPOCH":"2026-05-17T03:08:43.824192","MEAN_MOTION":13.11420542,"ECCENTRICITY":0.0002085,"INCLINATION":87.8934,"RA_OF_ASC_NODE":27.2151,"ARG_OF_PERICENTER":75.4677,"MEAN_ANOMALY":284.6682,"EPHEMERIS_TYPE":0,"CLASSIFICATION_TYPE":"U","NORAD_CAT_ID":45451,"ELEMENT_SET_NO":999,"REV_AT_EPOCH":29851,"BSTAR":0.00088349,"MEAN_MOTION_DOT":3.26e-06,"MEAN_MOTION_DDOT":0.0},{"OBJECT_NAME":"ONEWEB-0082","OBJECT_ID":"2020-020AE","EPOCH":"2026-05-17T03:04:04.708128","MEAN_MOTION":13.11420965,"ECCENTRICITY":0.0002011,"INCLINATION":87.8925,"RA_OF_ASC_NODE":27.2348,"ARG_OF_PERICENTER":76.0122,"MEAN_ANOMALY":284.1229,"EPHEMERIS_TYPE":0,"CLASSIFICATION_TYPE":"U","NORAD_CAT_ID":45452,"ELEMENT_SET_NO":999,"REV_AT_EPOCH":29860,"BSTAR":0.00033453,"MEAN_MOTION_DOT":1.31e-06,"MEAN_MOTION_DDOT":0.0},{"OBJECT_NAME":"ONEWEB-0050","OBJECT_ID":"2020-020AF","EPOCH":"2026-05-17T04:31:05.657088","MEAN_MOTION":14.90225648,"ECCENTRICITY":0.0006055,"INCLINATION":88.9296,"RA_OF_ASC_NODE":237.4167,"ARG_OF_PERICENTER":90.391,"MEAN_ANOMALY":269.8013,"EPHEMERIS_TYPE":0,"CLASSIFICATION_TYPE":"U","NORAD_CAT_ID":45453,"ELEMENT_SET_NO":999,"REV_AT_EPOCH":33576,"BSTAR":8.866100000000001e-05,"MEAN_MOTION_DOT":8.81e-06,"MEAN_MOTION_DDOT":0.0},{"OBJECT_NAME":"ONEWEB-0034","OBJECT_ID":"2020-020AG","EPOCH":"2026-05-17T03:46:00.943104","MEAN_MOTION":13.10931078,"ECCENTRICITY":0.0001852,"INCLINATION":87.8918,"RA_OF_ASC_NODE":27.2353,"ARG_OF_PERICENTER":80.164,"MEAN_ANOMALY":279.9697,"EPHEMERIS_TYPE":0,"CLASSIFICATION_TYPE":"U","NORAD_CAT_ID":45454,"ELEMENT_SET_NO":999,"REV_AT_EPOCH":29852,"BSTAR":0.00073839,"MEAN_MOTION_DOT":2.73e-06,"MEAN_MOTION_DDOT":0.0},{"OBJECT_NAME":"ONEWEB-0060","OBJECT_ID":"2020-020AH","EPOCH":"2026-05-17T02:53:03.425856","MEAN_MOTION":13.1141853,"ECCENTRICITY":0.000262,"INCLINATION":87.8917,"RA_OF_ASC_NODE":27.2461,"ARG_OF_PERICENTER":63.3758,"MEAN_ANOMALY":296.7638,"EPHEMERIS_TYPE":0,"CLASSIFICATION_TYPE":"U","NORAD_CAT_ID":45455,"ELEMENT_SET_NO":999,"REV_AT_EPOCH":29847,"BSTAR":-0.0010391,"MEAN_MOTION_DOT":-3.56e-06,"MEAN_MOTION_DDOT":0.0},{"OBJECT_NAME":"ONEWEB-0086","OBJECT_ID":"2020-020AJ","EPOCH":"2026-05-17T04:12:24.305184","MEAN_MOTION":13.11414774,"ECCENTRICITY":0.0001943,"INCLINATION":87.8923,"RA_OF_ASC_NODE":27.2286,"ARG_OF_PERICENTER":58.7253,"MEAN_ANOMALY":301.4065,"EPHEMERIS_TYPE":0,"CLASSIFICATION_TYPE":"U","NORAD_CAT_ID":45456,"ELEMENT_SET_NO":999,"REV_AT_EPOCH":29854,"BSTAR":-0.0011059,"MEAN_MOTION_DOT":-3.79e-06,"MEAN_MOTION_DDOT":0.0},{"OBJECT_NAME":"ONEWEB-0088","OBJECT_ID":"2020-020AK","EPOCH":"2026-05-17T03:40:41.949984","MEAN_MOTION":13.11416117,"ECCENTRICITY":0.0002108,"INCLINATION":87.8931,"RA_OF_ASC_NODE":27.2028,"ARG_OF_PERICENTER":90.5028,"MEAN_ANOMALY":269.6342,"EPHEMERIS_TYPE":0,"CLASSIFICATION_TYPE":"U","NORAD_CAT_ID":45457,"ELEMENT_SET_NO":999,"REV_AT_EPOCH":29847,"BSTAR":0.0012541,"MEAN_MOTION_DOT":4.57e-06,"MEAN_MOTION_DDOT":0.0},{"OBJECT_NAME":"ONEWEB-0102","OBJECT_ID":"2020-100A","EPOCH":"2026-05-17T02:31:49.948608","MEAN_MOTION":13.12443592,"ECCENTRICITY":0.0001636,"INCLINATION":87.8963,"RA_OF_ASC_NODE":356.8568,"ARG_OF_PERICENTER":77.0858,"MEAN_ANOMALY":283.0453,"EPHEMERIS_TYPE":0,"CLASSIFICATION_TYPE":"U","NORAD_CAT_ID":47258,"ELEMENT_SET_NO":999,"REV_AT_EPOCH":26065,"BSTAR":-0.00085775,"MEAN_MOTION_DOT":-2.96e-06,"MEAN_MOTION_DDOT":0.0},{"OBJECT_NAME":"ONEWEB-0109","OBJECT_ID":"2020-100B","EPOCH":"2026-05-17T02:44:01.146624","MEAN_MOTION":13.12458653,"ECCENTRICITY":0.0001665,"INCLINATION":87.8966,"RA_OF_ASC_NODE":356.8366,"ARG_OF_PERICENTER":84.1407,"MEAN_ANOMALY":275.9911,"EPHEMERIS_TYPE":0,"CLASSIFICATION_TYPE":"U","NORAD_CAT_ID":47259,"ELEMENT_SET_NO":999,"REV_AT_EPOCH":26048,"BSTAR":-0.0082268,"MEAN_MOTION_DOT":-2.947e-05,"MEAN_MOTION_DDOT":0.0},{"OBJECT_NAME":"ONEWEB-0110","OBJECT_ID":"2020-100C","EPOCH":"2026-05-17T03:23:03.938784","MEAN_MOTION":13.12441345,"ECCENTRICITY":0.0001845,"INCLINATION":87.8969,"RA_OF_ASC_NODE":356.8157,"ARG_OF_PERICENTER":76.8335,"MEAN_ANOMALY":283.2999,"EPHEMERIS_TYPE":0,"CLASSIFICATION_TYPE":"U","NORAD_CAT_ID":47260,"ELEMENT_SET_NO":999,"REV_AT_EPOCH":26065,"BSTAR":0.0011755000000000001,"MEAN_MOTION_DOT":4.36e-06,"MEAN_MOTION_DDOT":0.0},{"OBJECT_NAME":"ONEWEB-0111","OBJECT_ID":"2020-100D","EPOCH":"2026-05-17T02:17:10.739616","MEAN_MOTION":13.12442683,"ECCENTRICITY":0.0001864,"INCLINATION":87.8969,"RA_OF_ASC_NODE":356.843,"ARG_OF_PERICENTER":82.7753,"MEAN_ANOMALY":277.3588,"EPHEMERIS_TYPE":0,"CLASSIFICATION_TYPE":"U","NORAD_CAT_ID":47261,"ELEMENT_SET_NO":999,"REV_AT_EPOCH":26048,"BSTAR":-0.00091208,"MEAN_MOTION_DOT":-3.15e-06,"MEAN_MOTION_DDOT":0.0},{"OBJECT_NAME":"ONEWEB-0114","OBJECT_ID":"2020-100E","EPOCH":"2026-05-17T03:01:06.000096","MEAN_MOTION":13.12442449,"ECCENTRICITY":0.0001661,"INCLINATION":87.897,"RA_OF_ASC_NODE":356.834,"ARG_OF_PERICENTER":91.7567,"MEAN_ANOMALY":268.3752,"EPHEMERIS_TYPE":0,"CLASSIFICATION_TYPE":"U","NORAD_CAT_ID":47262,"ELEMENT_SET_NO":999,"REV_AT_EPOCH":26044,"BSTAR":0.00089793,"MEAN_MOTION_DOT":3.36e-06,"MEAN_MOTION_DDOT":0.0},{"OBJECT_NAME":"ONEWEB-0117","OBJECT_ID":"2020-100F","EPOCH":"2026-05-17T02:48:53.139744","MEAN_MOTION":13.12443907,"ECCENTRICITY":0.0001775,"INCLINATION":87.8966,"RA_OF_ASC_NODE":356.8277,"ARG_OF_PERICENTER":83.3294,"MEAN_ANOMALY":276.8037,"EPHEMERIS_TYPE":0,"CLASSIFICATION_TYPE":"U","NORAD_CAT_ID":47263,"ELEMENT_SET_NO":999,"REV_AT_EPOCH":26045,"BSTAR":-0.00052354,"MEAN_MOTION_DOT":-1.76e-06,"MEAN_MOTION_DDOT":0.0},{"OBJECT_NAME":"ONEWEB-0118","OBJECT_ID":"2020-100G","EPOCH":"2026-05-17T03:37:41.063808","MEAN_MOTION":13.12443969,"ECCENTRICITY":0.0001773,"INCLINATION":87.8966,"RA_OF_ASC_NODE":356.8238,"ARG_OF_PERICENTER":94.821,"MEAN_ANOMALY":265.3121,"EPHEMERIS_TYPE":0,"CLASSIFICATION_TYPE":"U","NORAD_CAT_ID":47264,"ELEMENT_SET_NO":999,"REV_AT_EPOCH":26065,"BSTAR":0.00053248,"MEAN_MOTION_DOT":2.04e-06,"MEAN_MOTION_DDOT":0.0},{"OBJECT_NAME":"ONEWEB-0119","OBJECT_ID":"2020-100H","EPOCH":"2026-05-17T00:34:42.348000","MEAN_MOTION":13.124415,"ECCENTRICITY":0.0001763,"INCLINATION":87.8963,"RA_OF_ASC_NODE":356.8673,"ARG_OF_PERICENTER":84.7005,"MEAN_ANOMALY":275.4325,"EPHEMERIS_TYPE":0,"CLASSIFICATION_TYPE":"U","NORAD_CAT_ID":47265,"ELEMENT_SET_NO":999,"REV_AT_EPOCH":26061,"BSTAR":-0.00099917,"MEAN_MOTION_DOT":-3.47e-06,"MEAN_MOTION_DDOT":0.0}]