ONEWEB-0094             
1 45450U 20020AC  26137.14504039  .00000099  00000+0  22227-3 0  9992
2 45450  87.9169  12.0186 0001879  75.9423 284.1918 13.17649224302224
ONEWEB-0087             
1 45451U 20020AD  26137.13106278  .00000326  00000+0  88349-3 0  9995
2 45451  87.8934  27.2151 0002085  75.4677 284.6682 13.11420542298513
ONEWEB-0082             
1 45452U 20020AE  26137.12783227  .00000131  00000+0  33453-3 0  9990
2 45452  87.8925  27.2348 0002011  76.0122 284.1229 13.11420965298604
ONEWEB-0050             
1 45453U 20020AF  26137.18825992  .00000881  00000+0  88661-4 0  9997
2 45453  88.9296 237.4167 0006055  90.3910 269.8013 14.90225648335767
ONEWEB-0034             
1 45454U 20020AG  26137.15695536  .00000273  00000+0  73839-3 0  9999
2 45454  87.8918  27.2353 0001852  80.1640 279.9697 13.10931078298520
ONEWEB-0060             
1 45455U 20020AH  26137.12017854 -.00000356  00000+0 -10391-2 0  9995
2 45455  87.8917  27.2461 0002620  63.3758 296.7638 13.11418530298477
ONEWEB-0086             
1 45456U 20020AJ  26137.17528131 -.00000379  00000+0 -11059-2 0  9993
2 45456  87.8923  27.2286 0001943  58.7253 301.4065 13.11414774298547
ONEWEB-0088             
1 45457U 20020AK  26137.15326331  .00000457  00000+0  12541-2 0  9992
2 45457  87.8931  27.2028 0002108  90.5028 269.6342 13.11416117298477
ONEWEB-0102             
1 47258U 20100A   26137.10543922 -.00000296  00000+0 -85775-3 0  9997
2 47258  87.8963 356.8568 0001636  77.0858 283.0453 13.12443592260659
ONEWEB-0109             
1 47259U 20100B   26137.11390216 -.00002947  00000+0 -82268-2 0  9993
2 47259  87.8966 356.8366 0001665  84.1407 275.9911 13.12458653260484
ONEWEB-0110             
1 47260U 20100C   26137.14101781  .00000436  00000+0  11755-2 0  9997
2 47260  87.8969 356.8157 0001845  76.8335 283.2999 13.12441345260652
ONEWEB-0111             
1 47261U 20100D   26137.09526319 -.00000315  00000+0 -91208-3 0  9990
2 47261  87.8969 356.8430 0001864  82.7753 277.3588 13.12442683260483
ONEWEB-0114             
1 47262U 20100E   26137.12576389  .00000336  00000+0  89793-3 0  9994
2 47262  87.8970 356.8340 0001661  91.7567 268.3752 13.12442449260443
ONEWEB-0117             
1 47263U 20100F   26137.11728171 -.00000176  00000+0 -52354-3 0  9999
2 47263  87.8966 356.8277 0001775  83.3294 276.8037 13.12443907260459
ONEWEB-0118             
1 47264U 20100G   26137.15116972  .00000204  00000+0  53248-3 0  9997
2 47264  87.8966 356.8238 0001773  94.8210 265.3121 13.12443969260657
ONEWEB-0119             
1 47265U 20100H   26137.02410125 -.00000347  00000+0 -99917-3 0  9994
2 47265  87.8963 356.8673 0001763  84.7005 275.4325 13.12441500260610
